{
  "type": "FeatureCollection",
  "features": [
    {
      "type": "Feature",
      "properties": {
        "norad_id": 66447,
        "name": "STARLINK-34851",
        "group": "last-30-days",
        "lat": -41.21736483916937,
        "lon": -11.890577256176629,
        "alt_km": 416.8503565164119,
        "timestamp": "2025-12-10T20:49:51.343828+00:00",
        "meta_object_name": "STARLINK-34851",
        "meta_object_id": "2025-259AB",
        "meta_epoch": "2025-12-10T05:41:44.121408",
        "meta_mean_motion": 15.50651186,
        "meta_eccentricity": 0.0001321,
        "meta_inclination": 42.9984,
        "meta_ra_of_asc_node": 61.8661,
        "meta_arg_of_pericenter": 284.8329,
        "meta_mean_anomaly": 75.2384,
        "meta_ephemeris_type": 0,
        "meta_classification_type": "U",
        "meta_norad_cat_id": 66447,
        "meta_element_set_no": 999,
        "meta_rev_at_epoch": 567,
        "meta_bstar": 0.0017574,
        "meta_mean_motion_dot": 0.00104412,
        "meta_mean_motion_ddot": 0,
        "tle_line1": "1 66447U 25259AB  25344.23731622  .00104412  00000+0  17574-2 0  9991",
        "tle_line2": "2 66447  42.9984  61.8661 0001321 284.8329  75.2384 15.50651186  5671"
      },
      "geometry": {
        "type": "Point",
        "coordinates": [
          -11.890577256176629,
          -41.21736483916937
        ]
      }
    },
    {
      "type": "Feature",
      "properties": {
        "norad_id": 66448,
        "name": "STARLINK-35355",
        "group": "last-30-days",
        "lat": -40.81890235076169,
        "lon": -9.762853357291014,
        "alt_km": 415.1310793816565,
        "timestamp": "2025-12-10T20:49:51.343838+00:00",
        "meta_object_name": "STARLINK-35355",
        "meta_object_id": "2025-259AC",
        "meta_epoch": "2025-12-10T13:25:01.561440",
        "meta_mean_motion": 15.5060967,
        "meta_eccentricity": 0.00043605,
        "meta_inclination": 43.0057,
        "meta_ra_of_asc_node": 59.9766,
        "meta_arg_of_pericenter": 272.1256,
        "meta_mean_anomaly": 87.9104,
        "meta_ephemeris_type": 0,
        "meta_classification_type": "U",
        "meta_norad_cat_id": 66448,
        "meta_element_set_no": 999,
        "meta_rev_at_epoch": 583,
        "meta_bstar": 0.0019215458,
        "meta_mean_motion_dot": 0.00114197,
        "meta_mean_motion_ddot": 0,
        "tle_line1": "1 66448U 25259AC  25344.55904585  .00114197  00000+0  19215-2 0  9992",
        "tle_line2": "2 66448  43.0057  59.9766 0004360 272.1256  87.9104 15.50609670  5833"
      },
      "geometry": {
        "type": "Point",
        "coordinates": [
          -9.762853357291014,
          -40.81890235076169
        ]
      }
    },
    {
      "type": "Feature",
      "properties": {
        "norad_id": 66449,
        "name": "STARLINK-34720",
        "group": "last-30-days",
        "lat": -40.25719259334854,
        "lon": -7.156700498841121,
        "alt_km": 416.13452108430283,
        "timestamp": "2025-12-10T20:49:51.343848+00:00",
        "meta_object_name": "STARLINK-34720",
        "meta_object_id": "2025-259AD",
        "meta_epoch": "2025-12-10T11:51:46.579968",
        "meta_mean_motion": 15.50681611,
        "meta_eccentricity": 0.00025267,
        "meta_inclination": 43.0013,
        "meta_ra_of_asc_node": 60.3517,
        "meta_arg_of_pericenter": 262.4662,
        "meta_mean_anomaly": 97.5912,
        "meta_ephemeris_type": 0,
        "meta_classification_type": "U",
        "meta_norad_cat_id": 66449,
        "meta_element_set_no": 999,
        "meta_rev_at_epoch": 571,
        "meta_bstar": 0.0022240918,
        "meta_mean_motion_dot": 0.00132863,
        "meta_mean_motion_ddot": 0,
        "tle_line1": "1 66449U 25259AD  25344.49428912  .00132863  00000+0  22241-2 0  9994",
        "tle_line2": "2 66449  43.0013  60.3517 0002526 262.4662  97.5912 15.50681611  5717"
      },
      "geometry": {
        "type": "Point",
        "coordinates": [
          -7.156700498841121,
          -40.25719259334854
        ]
      }
    },
    {
      "type": "Feature",
      "properties": {
        "norad_id": 66450,
        "name": "STARLINK-35334",
        "group": "last-30-days",
        "lat": -39.72592708214297,
        "lon": -4.922959600302984,
        "alt_km": 416.65316035112664,
        "timestamp": "2025-12-10T20:49:51.343858+00:00",
        "meta_object_name": "STARLINK-35334",
        "meta_object_id": "2025-259AE",
        "meta_epoch": "2025-12-10T13:24:02.373984",
        "meta_mean_motion": 15.50613633,
        "meta_eccentricity": 0.00020286,
        "meta_inclination": 43.003,
        "meta_ra_of_asc_node": 59.9713,
        "meta_arg_of_pericenter": 266.842,
        "meta_mean_anomaly": 93.2208,
        "meta_ephemeris_type": 0,
        "meta_classification_type": "U",
        "meta_norad_cat_id": 66450,
        "meta_element_set_no": 999,
        "meta_rev_at_epoch": 583,
        "meta_bstar": 0.0021724597,
        "meta_mean_motion_dot": 0.00129395,
        "meta_mean_motion_ddot": 0,
        "tle_line1": "1 66450U 25259AE  25344.55836081  .00129395  00000+0  21725-2 0  9995",
        "tle_line2": "2 66450  43.0030  59.9713 0002028 266.8420  93.2208 15.50613633  5830"
      },
      "geometry": {
        "type": "Point",
        "coordinates": [
          -4.922959600302984,
          -39.72592708214297
        ]
      }
    },
    {
      "type": "Feature",
      "properties": {
        "norad_id": 66454,
        "name": "VIASAT-3 F2",
        "group": "last-30-days",
        "lat": 5.209913228420371,
        "lon": 4.959655411900205,
        "alt_km": 20229.409196979603,
        "timestamp": "2025-12-10T20:49:51.343872+00:00",
        "meta_object_name": "VIASAT-3 F2",
        "meta_object_id": "2025-261A",
        "meta_epoch": "2025-12-08T12:11:15.383616",
        "meta_mean_motion": 2.19142646,
        "meta_eccentricity": 0.22792154,
        "meta_inclination": 5.457,
        "meta_ra_of_asc_node": 292.6501,
        "meta_arg_of_pericenter": 190.5469,
        "meta_mean_anomaly": 204.5187,
        "meta_ephemeris_type": 0,
        "meta_classification_type": "U",
        "meta_norad_cat_id": 66454,
        "meta_element_set_no": 999,
        "meta_rev_at_epoch": 55,
        "meta_bstar": 0,
        "meta_mean_motion_dot": -8.1e-07,
        "meta_mean_motion_ddot": 0,
        "tle_line1": "1 66454U 25261A   25342.50781694 -.00000081  00000+0  00000+0 0  9995",
        "tle_line2": "2 66454   5.4570 292.6501 2279215 190.5469 204.5187  2.19142646   557"
      },
      "geometry": {
        "type": "Point",
        "coordinates": [
          4.959655411900205,
          5.209913228420371
        ]
      }
    },
    {
      "type": "Feature",
      "properties": {
        "norad_id": 66455,
        "name": "ATLAS 5 CENTAUR R/B",
        "group": "last-30-days",
        "lat": -5.978142135446933,
        "lon": -172.01323010266256,
        "alt_km": 14982.808067489535,
        "timestamp": "2025-12-10T20:49:51.343886+00:00",
        "meta_object_name": "ATLAS 5 CENTAUR R/B",
        "meta_object_id": "2025-261B",
        "meta_epoch": "2025-12-10T08:02:25.152576",
        "meta_mean_motion": 2.28259711,
        "meta_eccentricity": 0.23295014,
        "meta_inclination": 6.1488,
        "meta_ra_of_asc_node": 291.857,
        "meta_arg_of_pericenter": 186.0008,
        "meta_mean_anomaly": 328.6826,
        "meta_ephemeris_type": 0,
        "meta_classification_type": "U",
        "meta_norad_cat_id": 66455,
        "meta_element_set_no": 999,
        "meta_rev_at_epoch": 59,
        "meta_bstar": 0,
        "meta_mean_motion_dot": -8e-07,
        "meta_mean_motion_ddot": 0,
        "tle_line1": "1 66455U 25261B   25344.33501334 -.00000080  00000+0  00000+0 0  9999",
        "tle_line2": "2 66455   6.1488 291.8570 2329501 186.0008 328.6826  2.28259711   598"
      },
      "geometry": {
        "type": "Point",
        "coordinates": [
          -172.01323010266256,
          -5.978142135446933
        ]
      }
    },
    {
      "type": "Feature",
      "properties": {
        "norad_id": 66456,
        "name": "STARLINK-35643",
        "group": "last-30-days",
        "lat": -11.51054093537198,
        "lon": -84.97813626751598,
        "alt_km": 445.18536088405926,
        "timestamp": "2025-12-10T20:49:51.343897+00:00",
        "meta_object_name": "STARLINK-35643",
        "meta_object_id": "2025-262A",
        "meta_epoch": "2025-12-10T16:00:01.999584",
        "meta_mean_motion": 15.40610325,
        "meta_eccentricity": 0.00013397,
        "meta_inclination": 43.0001,
        "meta_ra_of_asc_node": 83.5588,
        "meta_arg_of_pericenter": 278.2779,
        "meta_mean_anomaly": 241.0706,
        "meta_ephemeris_type": 0,
        "meta_classification_type": "U",
        "meta_norad_cat_id": 66456,
        "meta_element_set_no": 999,
        "meta_rev_at_epoch": 530,
        "meta_bstar": 0.0029575809,
        "meta_mean_motion_dot": 0.00124911,
        "meta_mean_motion_ddot": 0,
        "tle_line1": "1 66456U 25262A   25344.66668981  .00124911  00000+0  29576-2 0  9990",
        "tle_line2": "2 66456  43.0001  83.5588 0001339 278.2779 241.0706 15.40610325  5307"
      },
      "geometry": {
        "type": "Point",
        "coordinates": [
          -84.97813626751598,
          -11.51054093537198
        ]
      }
    }
  ]
}